MICROCARB               
1 64899U 25156A   26060.22351626  .00000811  00000+0  13626-3 0  9996
2 64899  97.9902 139.2718 0015026 255.8721 104.0817 14.72203952 32088
CO3D 3                  
1 64900U 25156B   26060.50155326 -.00000186  00000+0 -54929-5 0  9999
2 64900  97.4335 140.7396 0001263 166.1685 193.9585 15.20192955 33170
CO3D 4                  
1 64901U 25156C   26060.50170963  .00002921  00000+0  13798-3 0  9998
2 64901  97.4329 140.7402 0000253 289.7001  70.4207 15.20202882 33175
CO3D 2                  
1 64902U 25156D   26060.46836506  .00012199  00000+0  56562-3 0  9990
2 64902  97.4340 140.6068 0001259 139.2702 220.8627 15.20208086 33168
CO3D 1                  
1 64903U 25156E   26060.46851706  .00005854  00000+0  27328-3 0  9998
2 64903  97.4333 140.6066 0001118 148.7760 211.3542 15.20209347 33164
SENTINEL-6B             
1 66514U 25264A   26060.18490668 -.00000061  00000+0  38332-6 0  9999
2 66514  66.0443 359.5007 0007999 270.6727  89.3372 12.80929318 13336
CSG-3                   
1 67304U 26001A   26060.51973333  .00000523  00000+0  72287-4 0  9996
2 67304  97.8859 245.6755 0001363  90.6097 269.5272 14.82162251  8515
