OBJECT_NAME,OBJECT_ID,EPOCH,MEAN_MOTION,ECCENTRICITY,INCLINATION,RA_OF_ASC_NODE,ARG_OF_PERICENTER,MEAN_ANOMALY,EPHEMERIS_TYPE,CLASSIFICATION_TYPE,NORAD_CAT_ID,ELEMENT_SET_NO,REV_AT_EPOCH,BSTAR,MEAN_MOTION_DOT,MEAN_MOTION_DDOT
MICROCARB,2025-156A,2026-03-01T05:21:51.804864,14.72203952,.0015026,97.9902,139.2718,255.8721,104.0817,0,U,64899,999,3208,.13626E-3,.811E-5,0
CO3D 3,2025-156B,2026-03-01T12:02:14.201664,15.20192955,.0001263,97.4335,140.7396,166.1685,193.9585,0,U,64900,999,3317,-.54929E-5,-.186E-5,0
CO3D 4,2025-156C,2026-03-01T12:02:27.712032,15.20202882,.0000253,97.4329,140.7402,289.7001,70.4207,0,U,64901,999,3317,.13798E-3,.2921E-4,0
CO3D 2,2025-156D,2026-03-01T11:14:26.741184,15.20208086,.0001259,97.4340,140.6068,139.2702,220.8627,0,U,64902,999,3316,.56562E-3,.12199E-3,0
CO3D 1,2025-156E,2026-03-01T11:14:39.873984,15.20209347,.0001118,97.4333,140.6066,148.7760,211.3542,0,U,64903,999,3316,.27328E-3,.5854E-4,0
SENTINEL-6B,2025-264A,2026-03-01T04:26:15.937152,12.80929318,.0007999,66.0443,359.5007,270.6727,89.3372,0,U,66514,999,1333,.38332E-6,-.61E-6,0
CSG-3,2026-001A,2026-03-01T12:28:24.959712,14.82162251,.0001363,97.8859,245.6755,90.6097,269.5272,0,U,67304,999,851,.72287E-4,.523E-5,0